STARLINK-2538
1 18300C 21036AA  21326.17918183  .00004211  00000-0  28219-3 0  3266
2 18300  53.0559 292.9407 0001795  57.6526  64.4582 15.06384162    16
